STARLINK-33817          
1 63583U 25076Q   26068.09636431  .00036914  00000+0  13443-2 0  9998
2 63583  43.0025 324.7015 0001370 281.3058  78.7640 15.27578190 51734
REAL                    
1 64875U 25154G   26068.72233414  .00022901  00000+0  82904-3 0  9994
2 64875  97.4133 137.2581 0001853 118.5876 241.5550 15.28408058 34830
